OSCAR 7 (AO-7)          
1 07530U 74089B   23119.90036260 -.00000019  00000+0  16852-3 0  9990
2 07530 101.9456 106.2556 0012350 154.3582 233.5462 12.53663764217364
PHASE 3B (AO-10)        
1 14129U 83058B   23113.99434567 -.00000161  00000+0  00000+0 0  9995
2 14129  27.1049  45.4492 6036861 166.4546 222.5582  2.05867892271803
UOSAT 2 (UO-11)         
1 14781U 84021B   23119.87429849  .00001756  00000+0  21309-3 0  9999
2 14781  97.6545  98.6916 0008458  12.7425 347.4002 14.84737581107976
LUSAT (LO-19)           
1 20442U 90005G   23119.51259151  .00000238  00000+0  10334-3 0  9997
2 20442  98.8406  94.9984 0011082 326.5123  33.5359 14.33237961738371
EYESAT A (AO-27)        
1 22825U 93061C   23120.00900086  .00000148  00000+0  74741-4 0  9998
2 22825  98.8461 162.1115 0008035 201.6078 158.4766 14.30290235543675
ITAMSAT (IO-26)         
1 22826U 93061D   23120.02454991  .00000170  00000+0  82770-4 0  9996
2 22826  98.8406 161.9917 0008824 187.4696 172.6355 14.30649144543922
RADIO ROSTO (RS-15)     
1 23439U 94085A   23119.57708895 -.00000039  00000+0  10000-3 0  9998
2 23439  64.8161 354.3164 0164140 218.6508 140.2574 11.27573705167130
JAS-2 (FO-29)           
1 24278U 96046B   23120.12815777  .00000007  00000+0  42074-4 0  9991
2 24278  98.5261 105.2417 0350202 181.4015 178.6176 13.53142761318683
TECHSAT 1B (GO-32)      
1 25397U 98043D   23119.45258759  .00000138  00000+0  79914-4 0  9996
2 25397  98.8646  76.5003 0000239 319.1737  40.9423 14.23863107288392
ISS (ZARYA)             
1 25544U 98067A   23120.30550722 -.00137492  00000+0 -24643-2 0  9990
2 25544  51.6388 205.8267 0005442 283.2281 183.1709 15.49744270394361
PCSAT (NO-44)           
1 26931U 01043C   23119.27328998  .00000232  00000+0  11990-3 0  9992
2 26931  67.0512 323.1233 0007427 279.4069  80.6192 14.30897321126584
SAUDISAT 1C (SO-50)     
1 27607U 02058C   23119.82946638  .00001353  00000+0  20256-3 0  9998
2 27607  64.5556  53.1680 0073144 234.3384 125.0895 14.77167409 95295
CUTE-1 (CO-55)          
1 27844U 03031E   23119.51418085  .00000424  00000+0  20866-3 0  9994
2 27844  98.6796 127.4825 0008543 266.2789  93.7412 14.22743509 28813
CUBESAT XI-IV (CO-57)   
1 27848U 03031J   23120.00105247  .00000362  00000+0  18247-3 0  9998
2 27848  98.6832 128.3960 0008464 281.7306  78.2922 14.22259267 28702
MOZHAYETS 4 (RS-22)     
1 27939U 03042A   23120.20901798  .00001534  00000+0  27467-3 0  9994
2 27939  98.2352 266.8330 0011259 289.0809  70.9171 14.68253958 47505
CUBESAT XI-V            
1 28895U 05043F   23120.14385818  .00001956  00000+0  36948-3 0  9993
2 28895  98.1455 252.5971 0015621 220.0211 139.9842 14.65485548934002
CUTE-1.7+APD II (CO-65) 
1 32785U 08021C   23119.84643025  .00004474  00000+0  44723-3 0  9995
2 32785  97.7018  86.8613 0010363 263.3013  96.7027 14.91922740813688
DELFI-C3 (DO-64)        
1 32789U 08021G   23119.57391653  .00048573  00000+0  15865-2 0  9998
2 32789  97.3086 141.5626 0003599 290.5521  69.5334 15.31585050819932
SEEDS II (CO-66)        
1 32791U 08021J   23119.86059676  .00006576  00000+0  58837-3 0  9993
2 32791  97.6519  92.1429 0011175 204.8958 155.1726 14.96135389814514
YUBILEINY (RS-30)       
1 32953U 08025A   23120.07635706  .00000024  00000+0  10000-3 0  9998
2 32953  82.5061 347.0302 0018870 291.5123  68.3950 12.43122601677678
KKS-1 (KISEKI)          
1 33499U 09002H   23119.82233327  .00001495  00000+0  21993-3 0  9990
2 33499  98.1786  11.5116 0009505  30.6616 329.5147 14.76935821767350
SWISSCUBE               
1 35932U 09051B   23119.31713595  .00001172  00000+0  26794-3 0  9998
2 35932  98.5282 348.5038 0007985 148.4012 211.7667 14.57613550722095
BEESAT-1                
1 35933U 09051C   23120.09989699  .00000995  00000+0  22939-3 0  9995
2 35933  98.5211 350.6804 0006062 155.3634 204.7855 14.57538148722365
ITUPSAT1                
1 35935U 09051E   23119.28455106  .00000927  00000+0  21879-3 0  9994
2 35935  98.5314 349.8090 0008164 165.4511 194.6923 14.56593349721847
XIWANG-1 (HOPE-1)       
1 36122U 09072B   23119.52004291 -.00000026  00000+0  46479-4 0  9993
2 36122 100.2339  84.9404 0007287 340.1983  19.8847 13.16381996642393
JUGNU                   
1 37839U 11058B   23120.17434389  .00000530  00000+0  13983-3 0  9996
2 37839  19.9615  54.2282 0018907  49.9685  47.4084 14.12940806597094
SRMSAT                  
1 37841U 11058D   23120.19909653  .00000476  00000+0  11605-3 0  9990
2 37841  19.9702 140.1576 0011673 223.7429 203.2497 14.10881358596246
M-CUBED & EXP-1 PRIME   
1 37855U 11061F   23119.33013610  .00019089  00000+0  63646-3 0  9994
2 37855 101.7034  53.7423 0124728 189.0203 170.8778 15.23973059629118
STRAND-1                
1 39090U 13009E   23120.05078859  .00000395  00000+0  15197-3 0  9996
2 39090  98.3914 314.7291 0009922  53.1693 307.0401 14.35563103532830
SOMP                    
1 39134U 13015E   23119.31473322  .00082230  00000+0  12810-2 0  9999
2 39134  64.8508  93.0125 0015994 259.4050 100.5293 15.53268259555377
BEESAT-3                
1 39135U 13015F   23119.50082759  .00036602  00000+0  92638-3 0  9990
2 39135  64.8585 139.9698 0021648 247.9936 111.8901 15.39333410554439
BEESAT-2                
1 39136U 13015G   23120.04266635  .00032045  00000+0  87808-3 0  9999
2 39136  64.8681 148.9857 0026667 282.6242  77.1912 15.36813373554755
ZACUBE-1 (TSHEPISOSAT)  
1 39417U 13066B   23119.84596677  .00004633  00000+0  53890-3 0  9991
2 39417  97.6812  83.2319 0057129  86.5613 274.2135 14.84591523510022
GOMX-1                  
1 39430U 13066Q   23120.13340133  .00002787  00000+0  48889-3 0  9994
2 39430  97.7851  14.0707 0147253 125.0179 236.4916 14.61594008502527
CUBEBUG-2 (LO-74)       
1 39440U 13066AA  23119.80442363  .00002894  00000+0  37933-3 0  9992
2 39440  97.7687  70.1608 0075587 183.3142 176.7579 14.79102429508208
FUNCUBE-1 (AO-73)       
1 39444U 13066AE  23119.45889048  .00005863  00000+0  65505-3 0  9997
2 39444  97.6678  85.3651 0055461  74.1061 286.6258 14.86196238508409
UWE-3                   
1 39446U 13066AG  23119.81440480  .00003404  00000+0  42203-3 0  9991
2 39446  97.7307  76.3664 0067091 136.0471 224.6106 14.81705349507856
SPROUT                  
1 39770U 14029E   23120.04032633  .00026113  00000+0  20776-2 0  9997
2 39770  97.9704 245.9579 0008370 112.9685 247.1896 15.00352630484935
UNISAT-6                
1 40012U 14033C   23119.81230451  .00003097  00000+0  44065-3 0  9998
2 40012  97.6710 296.2641 0055233 212.1037 147.6806 14.76506540476639
DUCHIFAT-1              
1 40021U 14033M   23119.78105842  .00009396  00000+0  81510-3 0  9993
2 40021  98.0546  82.2211 0013646  77.8493 282.4256 14.97222758481947
QB50P1                  
1 40025U 14033R   23120.10321940  .00005193  00000+0  49880-3 0  9999
2 40025  97.9928  66.0313 0013018  92.8535 267.4174 14.93446146481478
ZDPS 2A                 
1 40901U 15049C   23119.99310265  .00039361  00000+0  10275-2 0  9992
2 40901  97.4486 134.4267 0005480 310.8969  49.1801 15.38686825421826
ZDPS 2B                 
1 40902U 15049D   23120.06934500  .00041734  00000+0  10523-2 0  9990
2 40902  97.4599 132.8020 0005162 306.7183 136.6339 15.39738842421826
KAITUO 1A               
1 40904U 15049F   23120.09526171  .00016631  00000+0  66625-3 0  9999
2 40904  97.4994 125.8083 0011047 356.1520  91.1141 15.25059434420970
2015-049G               
1 40905U 15049G   23120.07032671  .00008002  00000+0  37061-3 0  9990
2 40905  97.5251 122.7293 0013700   1.6222  69.2902 15.20293351420644
XW-2C                   
1 40906U 15049H   23120.10126363  .00013399  00000+0  53386-3 0  9990
2 40906  97.4971 127.1154 0010948 342.2478  91.1058 15.25293849421066
XW-2D                   
1 40907U 15049J   23120.11198303  .00015992  00000+0  60481-3 0  9990
2 40907  97.4948 127.5370 0009897 337.0831  95.7258 15.26999172421145
LILACSAT-2              
1 40908U 15049K   23120.09685045  .00007242  00000+0  34693-3 0  9997
2 40908  97.5264 123.3084 0013742   5.4145  67.5793 15.19154641420496
XW-2E                   
1 40909U 15049L   23120.09027877  .00030723  00000+0  88501-3 0  9998
2 40909  97.4575 133.3156 0006329 293.6317 138.9957 15.35673736421751
XW-2F                   
1 40910U 15049M   23120.00023259  .00029552  00000+0  86824-3 0  9995
2 40910  97.4660 132.4477 0007364 302.9676 115.0010 15.35054095421494
XW-2B                   
1 40911U 15049N   23120.10148541  .00015777  00000+0  60045-3 0  9990
2 40911  97.4930 127.9933 0009791 338.8975  95.3803 15.26793316421022
KAITUO 1B               
1 40912U 15049P   23120.00581615  .00037176  00000+0  91834-3 0  9990
2 40912  97.4210 136.9549 0007236 243.2358 172.7112 15.40378152422187
LAPAN-A2                
1 40931U 15052B   23120.22274054  .00001589  00000+0  13025-3 0  9990
2 40931   5.9966  68.9414 0013719 336.0304  23.9437 14.77184986410251
E-ST@R-II               
1 41459U 16025D   23120.10336851  .00025114  00000+0  78416-3 0  9993
2 41459  98.1905 316.6310 0111988 265.8242  93.0233 15.27179563385556
AAUSAT 4                
1 41460U 16025E   23120.17615134  .00085334  00000+0  15031-2 0  9999
2 41460  98.1695 327.6982 0072185 224.1467 206.0020 15.47213310386320
NUSAT-1 (FRESCO)        
1 41557U 16033B   23120.09122861  .00056068  00000+0  86714-3 0  9995
2 41557  97.3848 226.2864 0006114 301.3769 184.1763 15.53883106386146
BEESAT-4                
1 41619U 16040W   23120.09149502  .00067869  00000+0  10903-2 0  9990
2 41619  97.1652 169.5111 0005729  78.0067 282.1828 15.52781546369393
CAS-2T & KS-1Q          
1 41847U 16066G   23119.72673553  .00001112  00000+0  17517-3 0  9995
2 41847  98.5068 188.5028 0359833 343.0237  15.9160 14.39579428339837
NAYIF-1 (EO-88)         
1 42017U 17008BX  23120.14617628  .00123548  00000+0  12696-2 0  9991
2 42017  97.2154 189.8772 0005021 189.9861 170.1300 15.64487359345923
